[{"OBJECT_NAME":"FALCONSAT-6","OBJECT_ID":"2018-099BK","EPOCH":"2026-03-09T17:24:38.352096","MEAN_MOTION":15.26532865,"ECCENTRICITY":0.00143698,"INCLINATION":97.3865,"RA_OF_ASC_NODE":145.8165,"ARG_OF_PERICENTER":297.0944,"MEAN_ANOMALY":181.0714,"EPHEMERIS_TYPE":0,"CLASSIFICATION_TYPE":"U","NORAD_CAT_ID":43815,"ELEMENT_SET_NO":999,"REV_AT_EPOCH":39855,"BSTAR":0.00019476898,"MEAN_MOTION_DOT":5.029e-5,"MEAN_MOTION_DDOT":0},{"OBJECT_NAME":"STARLINK-32361","OBJECT_ID":"2024-207X","EPOCH":"2026-03-09T22:07:41.465280","MEAN_MOTION":15.27598509,"ECCENTRICITY":0.00020521,"INCLINATION":42.9969,"RA_OF_ASC_NODE":280.7526,"ARG_OF_PERICENTER":252.9929,"MEAN_ANOMALY":107.0698,"EPHEMERIS_TYPE":0,"CLASSIFICATION_TYPE":"U","NORAD_CAT_ID":61933,"ELEMENT_SET_NO":999,"REV_AT_EPOCH":7475,"BSTAR":0.0012588947,"MEAN_MOTION_DOT":0.00034563,"MEAN_MOTION_DDOT":0}]
